SL-3 R/B                
1 13403U 82079B   26012.80658869  .00004910  00000+0  19977-3 0  9997
2 13403  81.1463 259.0319 0025514 358.0256   2.0871 15.24017953369183
SL-14 R/B               
1 13553U 82092B   26012.57685452  .00000518  00000+0  55397-4 0  9997
2 13553  82.5669 193.8703 0021603 125.0246 300.2699 14.86592141320597
SL-3 R/B                
1 13819U 83010B   26012.55698801  .00012651  00000+0  27151-3 0  9990
2 13819  81.1036  70.9754 0016243 239.6368 120.3271 15.44433159349278
SL-3 R/B                
1 14208U 83075B   26012.78695493  .00009306  00000+0  25783-3 0  9995
2 14208  97.6118  15.3310 0024411  71.4265 288.9627 15.36893151321560
COSMOS 1536             
1 14699U 84013A   26012.69167382  .00006668  00000+0  28143-3 0  9994
2 14699  82.5458 163.4588 0015604 117.5703 242.7121 15.22987134264090
SL-14 R/B               
1 14820U 84027B   26012.73458118  .00000461  00000+0  49893-4 0  9991
2 14820  82.5432 297.4927 0018557 154.1635 206.0513 14.85913692239326
SL-8 R/B                
1 15483U 85006B   26012.73693721  .00000288  00000+0  10430-3 0  9997
2 15483  74.0463   4.1005 0019746 291.0793 241.7237 14.37744918145986
SL-12 R/B(2)            
1 15772U 85042D   26012.82948169  .00000060  00000+0  48698-4 0  9993
2 15772  71.1063 205.7402 0036511 215.5011 155.3841 14.21961918106458
SL-14 R/B               
1 15945U 85069B   26012.60172568  .00000421  00000+0  44876-4 0  9997
2 15945  82.5260  77.6882 0019327  22.7831 337.4238 14.86363588164500
SL-16 R/B               
1 16182U 85097B   26012.77928563  .00000046  00000+0  47178-4 0  9995
2 16182  71.0025 258.2583 0008543 326.5167  97.4238 14.16592305 79317
SL-14 R/B               
1 16496U 86006B   26012.86237403  .00000655  00000+0  66710-4 0  9999
2 16496  82.5287 312.2698 0078288  97.5724 263.4394 14.86719716140914
COSMOS 1743             
1 16719U 86034A   26012.77282097  .00029889  00000+0  45559-3 0  9994
2 16719  82.5350 132.3104 0005233 135.2748 224.8928 15.54307570171557
