CCSDS_OMM_VERS = 2.0
CREATION_DATE  = 
ORIGINATOR     = 

OBJECT_NAME    = SL-3 R/B
OBJECT_ID      = 1982-079B
CENTER_NAME    = EARTH
REF_FRAME      = TEME
TIME_SYSTEM    = UTC
MEAN_ELEMENT_THEORY = SGP/SGP4

EPOCH          = 2026-01-12T19:21:29.262816
MEAN_MOTION    = 15.24017953
ECCENTRICITY   = .0025514
INCLINATION    = 81.1463
RA_OF_ASC_NODE = 259.0319
ARG_OF_PERICENTER = 358.0256
MEAN_ANOMALY   = 2.0871

EPHEMERIS_TYPE = 0
CLASSIFICATION_TYPE = U
NORAD_CAT_ID   = 13403
ELEMENT_SET_NO = 999
REV_AT_EPOCH   = 36918
BSTAR          = .19977E-3
MEAN_MOTION_DOT = .491E-4
MEAN_MOTION_DDOT = 0

CCSDS_OMM_VERS = 2.0
CREATION_DATE  = 
ORIGINATOR     = 

OBJECT_NAME    = SL-14 R/B
OBJECT_ID      = 1982-092B
CENTER_NAME    = EARTH
REF_FRAME      = TEME
TIME_SYSTEM    = UTC
MEAN_ELEMENT_THEORY = SGP/SGP4

EPOCH          = 2026-01-12T13:50:40.230528
MEAN_MOTION    = 14.86592141
ECCENTRICITY   = .0021603
INCLINATION    = 82.5669
RA_OF_ASC_NODE = 193.8703
ARG_OF_PERICENTER = 125.0246
MEAN_ANOMALY   = 300.2699

EPHEMERIS_TYPE = 0
CLASSIFICATION_TYPE = U
NORAD_CAT_ID   = 13553
ELEMENT_SET_NO = 999
REV_AT_EPOCH   = 32059
BSTAR          = .55397E-4
MEAN_MOTION_DOT = .518E-5
MEAN_MOTION_DDOT = 0

CCSDS_OMM_VERS = 2.0
CREATION_DATE  = 
ORIGINATOR     = 

OBJECT_NAME    = SL-3 R/B
OBJECT_ID      = 1983-010B
CENTER_NAME    = EARTH
REF_FRAME      = TEME
TIME_SYSTEM    = UTC
MEAN_ELEMENT_THEORY = SGP/SGP4

EPOCH          = 2026-01-12T13:22:03.764064
MEAN_MOTION    = 15.44433159
ECCENTRICITY   = .0016243
INCLINATION    = 81.1036
RA_OF_ASC_NODE = 70.9754
ARG_OF_PERICENTER = 239.6368
MEAN_ANOMALY   = 120.3271

EPHEMERIS_TYPE = 0
CLASSIFICATION_TYPE = U
NORAD_CAT_ID   = 13819
ELEMENT_SET_NO = 999
REV_AT_EPOCH   = 34927
BSTAR          = .27151E-3
MEAN_MOTION_DOT = .12651E-3
MEAN_MOTION_DDOT = 0

CCSDS_OMM_VERS = 2.0
CREATION_DATE  = 
ORIGINATOR     = 

OBJECT_NAME    = SL-3 R/B
OBJECT_ID      = 1983-075B
CENTER_NAME    = EARTH
REF_FRAME      = TEME
TIME_SYSTEM    = UTC
MEAN_ELEMENT_THEORY = SGP/SGP4

EPOCH          = 2026-01-12T18:53:12.905952
MEAN_MOTION    = 15.36893151
ECCENTRICITY   = .0024411
INCLINATION    = 97.6118
RA_OF_ASC_NODE = 15.3310
ARG_OF_PERICENTER = 71.4265
MEAN_ANOMALY   = 288.9627

EPHEMERIS_TYPE = 0
CLASSIFICATION_TYPE = U
NORAD_CAT_ID   = 14208
ELEMENT_SET_NO = 999
REV_AT_EPOCH   = 32156
BSTAR          = .25783E-3
MEAN_MOTION_DOT = .9306E-4
MEAN_MOTION_DDOT = 0

CCSDS_OMM_VERS = 2.0
CREATION_DATE  = 
ORIGINATOR     = 

OBJECT_NAME    = COSMOS 1536
OBJECT_ID      = 1984-013A
CENTER_NAME    = EARTH
REF_FRAME      = TEME
TIME_SYSTEM    = UTC
MEAN_ELEMENT_THEORY = SGP/SGP4

EPOCH          = 2026-01-12T16:36:00.618048
MEAN_MOTION    = 15.22987134
ECCENTRICITY   = .0015604
INCLINATION    = 82.5458
RA_OF_ASC_NODE = 163.4588
ARG_OF_PERICENTER = 117.5703
MEAN_ANOMALY   = 242.7121

EPHEMERIS_TYPE = 0
CLASSIFICATION_TYPE = U
NORAD_CAT_ID   = 14699
ELEMENT_SET_NO = 999
REV_AT_EPOCH   = 26409
BSTAR          = .28143E-3
MEAN_MOTION_DOT = .6668E-4
MEAN_MOTION_DDOT = 0

CCSDS_OMM_VERS = 2.0
CREATION_DATE  = 
ORIGINATOR     = 

OBJECT_NAME    = SL-14 R/B
OBJECT_ID      = 1984-027B
CENTER_NAME    = EARTH
REF_FRAME      = TEME
TIME_SYSTEM    = UTC
MEAN_ELEMENT_THEORY = SGP/SGP4

EPOCH          = 2026-01-12T17:37:47.813952
MEAN_MOTION    = 14.85913692
ECCENTRICITY   = .0018557
INCLINATION    = 82.5432
RA_OF_ASC_NODE = 297.4927
ARG_OF_PERICENTER = 154.1635
MEAN_ANOMALY   = 206.0513

EPHEMERIS_TYPE = 0
CLASSIFICATION_TYPE = U
NORAD_CAT_ID   = 14820
ELEMENT_SET_NO = 999
REV_AT_EPOCH   = 23932
BSTAR          = .49893E-4
MEAN_MOTION_DOT = .461E-5
MEAN_MOTION_DDOT = 0

CCSDS_OMM_VERS = 2.0
CREATION_DATE  = 
ORIGINATOR     = 

OBJECT_NAME    = SL-8 R/B
OBJECT_ID      = 1985-006B
CENTER_NAME    = EARTH
REF_FRAME      = TEME
TIME_SYSTEM    = UTC
MEAN_ELEMENT_THEORY = SGP/SGP4

EPOCH          = 2026-01-12T17:41:11.374944
MEAN_MOTION    = 14.37744918
ECCENTRICITY   = .0019746
INCLINATION    = 74.0463
RA_OF_ASC_NODE = 4.1005
ARG_OF_PERICENTER = 291.0793
MEAN_ANOMALY   = 241.7237

EPHEMERIS_TYPE = 0
CLASSIFICATION_TYPE = U
NORAD_CAT_ID   = 15483
ELEMENT_SET_NO = 999
REV_AT_EPOCH   = 14598
BSTAR          = .1043E-3
MEAN_MOTION_DOT = .288E-5
MEAN_MOTION_DDOT = 0

CCSDS_OMM_VERS = 2.0
CREATION_DATE  = 
ORIGINATOR     = 

OBJECT_NAME    = SL-12 R/B(2)
OBJECT_ID      = 1985-042D
CENTER_NAME    = EARTH
REF_FRAME      = TEME
TIME_SYSTEM    = UTC
MEAN_ELEMENT_THEORY = SGP/SGP4

EPOCH          = 2026-01-12T19:54:27.218016
MEAN_MOTION    = 14.21961918
ECCENTRICITY   = .0036511
INCLINATION    = 71.1063
RA_OF_ASC_NODE = 205.7402
ARG_OF_PERICENTER = 215.5011
MEAN_ANOMALY   = 155.3841

EPHEMERIS_TYPE = 0
CLASSIFICATION_TYPE = U
NORAD_CAT_ID   = 15772
ELEMENT_SET_NO = 999
REV_AT_EPOCH   = 10645
BSTAR          = .48698E-4
MEAN_MOTION_DOT = .6E-6
MEAN_MOTION_DDOT = 0

CCSDS_OMM_VERS = 2.0
CREATION_DATE  = 
ORIGINATOR     = 

OBJECT_NAME    = SL-14 R/B
OBJECT_ID      = 1985-069B
CENTER_NAME    = EARTH
REF_FRAME      = TEME
TIME_SYSTEM    = UTC
MEAN_ELEMENT_THEORY = SGP/SGP4

EPOCH          = 2026-01-12T14:26:29.098752
MEAN_MOTION    = 14.86363588
ECCENTRICITY   = .0019327
INCLINATION    = 82.5260
RA_OF_ASC_NODE = 77.6882
ARG_OF_PERICENTER = 22.7831
MEAN_ANOMALY   = 337.4238

EPHEMERIS_TYPE = 0
CLASSIFICATION_TYPE = U
NORAD_CAT_ID   = 15945
ELEMENT_SET_NO = 999
REV_AT_EPOCH   = 16450
BSTAR          = .44876E-4
MEAN_MOTION_DOT = .421E-5
MEAN_MOTION_DDOT = 0

CCSDS_OMM_VERS = 2.0
CREATION_DATE  = 
ORIGINATOR     = 

OBJECT_NAME    = SL-16 R/B
OBJECT_ID      = 1985-097B
CENTER_NAME    = EARTH
REF_FRAME      = TEME
TIME_SYSTEM    = UTC
MEAN_ELEMENT_THEORY = SGP/SGP4

EPOCH          = 2026-01-12T18:42:10.278432
MEAN_MOTION    = 14.16592305
ECCENTRICITY   = .0008543
INCLINATION    = 71.0025
RA_OF_ASC_NODE = 258.2583
ARG_OF_PERICENTER = 326.5167
MEAN_ANOMALY   = 97.4238

EPHEMERIS_TYPE = 0
CLASSIFICATION_TYPE = U
NORAD_CAT_ID   = 16182
ELEMENT_SET_NO = 999
REV_AT_EPOCH   = 7931
BSTAR          = .47178E-4
MEAN_MOTION_DOT = .46E-6
MEAN_MOTION_DDOT = 0

CCSDS_OMM_VERS = 2.0
CREATION_DATE  = 
ORIGINATOR     = 

OBJECT_NAME    = SL-14 R/B
OBJECT_ID      = 1986-006B
CENTER_NAME    = EARTH
REF_FRAME      = TEME
TIME_SYSTEM    = UTC
MEAN_ELEMENT_THEORY = SGP/SGP4

EPOCH          = 2026-01-12T20:41:49.116192
MEAN_MOTION    = 14.86719716
ECCENTRICITY   = .0078288
INCLINATION    = 82.5287
RA_OF_ASC_NODE = 312.2698
ARG_OF_PERICENTER = 97.5724
MEAN_ANOMALY   = 263.4394

EPHEMERIS_TYPE = 0
CLASSIFICATION_TYPE = U
NORAD_CAT_ID   = 16496
ELEMENT_SET_NO = 999
REV_AT_EPOCH   = 14091
BSTAR          = .6671E-4
MEAN_MOTION_DOT = .655E-5
MEAN_MOTION_DDOT = 0

CCSDS_OMM_VERS = 2.0
CREATION_DATE  = 
ORIGINATOR     = 

OBJECT_NAME    = COSMOS 1743
OBJECT_ID      = 1986-034A
CENTER_NAME    = EARTH
REF_FRAME      = TEME
TIME_SYSTEM    = UTC
MEAN_ELEMENT_THEORY = SGP/SGP4

EPOCH          = 2026-01-12T18:32:51.731808
MEAN_MOTION    = 15.54307570
ECCENTRICITY   = .0005233
INCLINATION    = 82.5350
RA_OF_ASC_NODE = 132.3104
ARG_OF_PERICENTER = 135.2748
MEAN_ANOMALY   = 224.8928

EPHEMERIS_TYPE = 0
CLASSIFICATION_TYPE = U
NORAD_CAT_ID   = 16719
ELEMENT_SET_NO = 999
REV_AT_EPOCH   = 17155
BSTAR          = .45559E-3
MEAN_MOTION_DOT = .29889E-3
MEAN_MOTION_DDOT = 0

